STARLINK-35696          
1 66489U 25263E   26068.13124291  .00055788  00000+0  20198-2 0  9990
2 66489  43.0025 353.8370 0001575 273.5250  86.5422 15.27607879 18817
STARLINK-35693          
1 66490U 25263F   26068.11325060  .00026761  00000+0  97874-3 0  9992
2 66490  43.0037 353.7070 0001521 279.7392  80.3287 15.27570779 18813
STARLINK-35663          
1 66491U 25263G   26068.14023977  .00025893  00000+0  94750-3 0  9993
2 66491  43.0016 353.8950 0000671 289.3507  70.7272 15.27568398 18810
STARLINK-35673          
1 66492U 25263H   26068.19405785  .00040572  00000+0  14749-2 0  9990
2 66492  43.0002 353.4564 0001627 281.1193  78.9475 15.27600433 18829
STARLINK-35597          
1 66493U 25263J   26068.15307148  .00041609  00000+0  15119-2 0  9995
2 66493  43.0012 354.0031 0001310 261.5589  98.5114 15.27605625 18812
STARLINK-35689          
1 66494U 25263K   26067.83385995  .00035661  00000+0  12987-2 0  9997
2 66494  42.9976 355.9128 0000268 198.9212 161.1629 15.27592341 18766
STARLINK-35832          
1 66495U 25263L   26068.12481431  .00046717  00000+0  16968-2 0  9990
2 66495  43.0046 353.7896 0001688 256.5212 103.5452 15.27574085 18818
STARLINK-35909          
1 66496U 25263M   26068.14794136  .00038250  00000+0  13924-2 0  9994
2 66496  43.0014 353.9595 0001837 274.0825  85.9817 15.27576793 18819
STARLINK-35899          
1 66497U 25263N   26068.17994564  .00031635  00000+0  11551-2 0  9999
2 66497  43.0043 353.3380 0001687 249.5468 110.5203 15.27553031 18826
STARLINK-35907          
1 66498U 25263P   26068.14666816  .00038614  00000+0  14046-2 0  9999
2 66498  42.9992 353.9595 0000409 309.0303  51.0512 15.27597703 18818
STARLINK-35816          
1 66499U 25263Q   26068.15693726  .00038120  00000+0  13878-2 0  9995
2 66499  43.0030 354.0351 0001765 277.2488  82.8163 15.27576912 18815
STARLINK-35894          
1 66500U 25263R   26068.12947469  .00031549  00000+0  11503-2 0  9992
2 66500  43.0052 357.2906 0001974 261.2199  98.8430 15.27600519 18777
STARLINK-35897          
1 66501U 25263S   26068.20048189  .00036602  00000+0  13320-2 0  9997
2 66501  42.9993 353.5030 0001660 284.9559  75.1109 15.27604850 18820
STARLINK-35922          
1 66502U 25263T   26068.21975393  .00023804  00000+0  87173-3 0  9993
2 66502  43.0093 353.6390 0003320 259.7702 100.2776 15.27578500 18821
STARLINK-35917          
1 66503U 25263U   26068.14281052  .00026970  00000+0  98548-3 0  9993
2 66503  42.9988 353.9230 0001138 294.6165  65.4568 15.27598056 18813
STARLINK-35916          
1 66504U 25263V   26067.81924720  .00031780  00000+0  11589-2 0  9997
2 66504  42.9965 359.2903 0000642 328.5572  31.5241 15.27594257 18724
